CCSDS_OEM_VERS = 1.0
CREATION_DATE  = 2017-05-11T11:52:12
ORIGINATOR     = GMAT USER

META_START
OBJECT_NAME          = MOPSSat_alt_35785_km_RAAN_270_032
OBJECT_ID            = SatId
CENTER_NAME          = Earth
REF_FRAME            = EME2000
TIME_SYSTEM          = UTC
START_TIME           = 2017-01-01T00:00:00.000
USEABLE_START_TIME   = 2017-01-01T00:00:00.000
USEABLE_STOP_TIME    = 2017-01-02T00:00:00.000
STOP_TIME            = 2017-01-02T00:00:00.000
INTERPOLATION        = Lagrange
INTERPOLATION_DEGREE = 7 
META_STOP


                                                                                   

2017-01-01T04:53:20.000   4.043518536424113e+04  -1.195067510141621e+04   8.681777028926721e-02   8.714738974464815e-01   2.948557215773954e+00  -4.417879454589985e-05
2017-01-01T04:53:30.000   4.044388935156415e+04  -1.192118635446815e+04   8.637577874024746e-02   8.693234732670838e-01   2.949191856201026e+00  -4.421950616587123e-05
2017-01-01T04:53:40.000   4.045257183216634e+04  -1.189169126952312e+04   8.593338033110014e-02   8.671725868384698e-01   2.949824928341453e+00  -4.426016826229920e-05
2017-01-01T04:53:50.000   4.046123280152032e+04  -1.186218986196115e+04   8.549057555269869e-02   8.650212392821253e-01   2.950456431865268e+00  -4.430078079401220e-05
2017-01-01T04:54:00.000   4.046987225508899e+04  -1.183268214723772e+04   8.504736489741184e-02   8.628694317250367e-01   2.951086366441781e+00  -4.434134371978981e-05
2017-01-01T04:54:10.000   4.047849018837701e+04  -1.180316814070864e+04   8.460374885648156e-02   8.607171652869253e-01   2.951714731743361e+00  -4.438185699860449e-05
2017-01-01T04:54:20.000   4.048708659679110e+04  -1.177364785810066e+04   8.415972792705989e-02   8.585644411145601e-01   2.952341527435224e+00  -4.442232058897005e-05
2017-01-01T04:54:30.000   4.049566147575583e+04  -1.174412131512323e+04   8.371530260640861e-02   8.564112603534475e-01   2.952966753183898e+00  -4.446273444948014e-05
2017-01-01T04:54:40.000   4.050421482068765e+04  -1.171458852755512e+04   8.327047339319077e-02   8.542576241541499e-01   2.953590408655308e+00  -4.450309853868798e-05
2017-01-01T04:54:50.000   4.051274662700333e+04  -1.168504951122126e+04   8.282524078714604e-02   8.521035336705969e-01   2.954212493515411e+00  -4.454341281514165e-05
2017-01-01T04:55:00.000   4.052125689012725e+04  -1.165550428196298e+04   8.237960528862190e-02   8.499489900579102e-01   2.954833007430718e+00  -4.458367723742204e-05
2017-01-01T04:55:10.000   4.052974560549462e+04  -1.162595285562734e+04   8.193356739841599e-02   8.477939944716327e-01   2.955451950068527e+00  -4.462389176415750e-05
2017-01-01T04:55:20.000   4.053821276858251e+04  -1.159639524796170e+04   8.148712761619357e-02   8.456385480600340e-01   2.956069321099184e+00  -4.466405635417026e-05
2017-01-01T04:55:30.000   4.054665837488874e+04  -1.156683147468386e+04   8.104028644153380e-02   8.434826519692303e-01   2.956685120194558e+00  -4.470417096637758e-05
2017-01-01T04:55:40.000   4.055508241993206e+04  -1.153726155148216e+04   8.059304437393300e-02   8.413263073431861e-01   2.957299347028043e+00  -4.474423555979260e-05
2017-01-01T04:55:50.000   4.056348489927151e+04  -1.150768549394468e+04   8.014540191172224e-02   8.391695153185570e-01   2.957912001275957e+00  -4.478425009361735e-05
2017-01-01T04:56:00.000   4.057186580847677e+04  -1.147810331766520e+04   7.969735955367772e-02   8.370122770324129e-01   2.958523082615407e+00  -4.482421452710147e-05
2017-01-01T04:56:10.000   4.058022514312535e+04  -1.144851503825389e+04   7.924891779918528e-02   8.348545936230182e-01   2.959132590724072e+00  -4.486412881952811e-05
2017-01-01T04:56:20.000   4.058856289879302e+04  -1.141892067136638e+04   7.880007714866112e-02   8.326964662319525e-01   2.959740525279493e+00  -4.490399293017138e-05
2017-01-01T04:56:30.000   4.059687907104859e+04  -1.138932023272789e+04   7.835083810394039e-02   8.305378960058706e-01   2.960346885958714e+00  -4.494380681826797e-05
2017-01-01T04:56:40.000   4.060517365547790e+04  -1.135971373804593e+04   7.790120116694298e-02   8.283788840901353e-01   2.960951672440016e+00  -4.498357044313286e-05
2017-01-01T04:56:50.000   4.061344664757647e+04  -1.133010120340107e+04   7.745116684563692e-02   8.262194316573129e-01   2.961554884395097e+00  -4.502328376364019e-05
2017-01-01T04:57:00.000   4.062169804288002e+04  -1.130048264477355e+04   7.700073564682008e-02   8.240595398726541e-01   2.962156521498582e+00  -4.506294673885339e-05
2017-01-01T04:57:10.000   4.062992783691566e+04  -1.127085807821925e+04   7.654990807879881e-02   8.218992099069247e-01   2.962756583424470e+00  -4.510255932779054e-05
2017-01-01T04:57:20.000   4.063813602539142e+04  -1.124122751918828e+04   7.609868464102217e-02   8.197384428867162e-01   2.963355069859956e+00  -4.514212149033583e-05
2017-01-01T04:57:30.000   4.064632260400712e+04  -1.121159098320461e+04   7.564706583441727e-02   8.175772399440043e-01   2.963951980491627e+00  -4.518163318632996e-05
2017-01-01T04:57:40.000   4.065448756849745e+04  -1.118194848571213e+04   7.519505215905392e-02   8.154156022049273e-01   2.964547315008624e+00  -4.522109437577718e-05
2017-01-01T04:57:50.000   4.066263091452344e+04  -1.115230004245778e+04   7.474264411994387e-02   8.132535308177200e-01   2.965141073094707e+00  -4.526050501832793e-05
2017-01-01T04:58:00.000   4.067075263775393e+04  -1.112264566920734e+04   7.428984222274969e-02   8.110910269319920e-01   2.965733254434211e+00  -4.529986507366468e-05
2017-01-01T04:58:10.000   4.067885273386437e+04  -1.109298538174506e+04   7.383664697376290e-02   8.089280916986998e-01   2.966323858711952e+00  -4.533917450149951e-05
2017-01-01T04:58:20.000   4.068693119846188e+04  -1.106331919615970e+04   7.338305888431292e-02   8.067647262910054e-01   2.966912885607764e+00  -4.537843326120186e-05
2017-01-01T04:58:30.000   4.069498802718730e+04  -1.103364712845957e+04   7.292907846484757e-02   8.046009318762037e-01   2.967500334803940e+00  -4.541764131230223e-05
2017-01-01T04:58:40.000   4.070302321567479e+04  -1.100396919472409e+04   7.247470622725809e-02   8.024367096267747e-01   2.968086205982282e+00  -4.545679861429309e-05
2017-01-01T04:58:50.000   4.071103675973307e+04  -1.097428541043408e+04   7.201994267462682e-02   8.002720606715462e-01   2.968670498837325e+00  -4.549590512751403e-05
2017-01-01T04:59:00.000   4.071902865516387e+04  -1.094459579114135e+04   7.156478831147441e-02   7.981069861445238e-01   2.969253213063092e+00  -4.553496081226613e-05
2017-01-01T04:59:10.000   4.072699889780338e+04  -1.091490035231746e+04   7.110924364144977e-02   7.959414871738589e-01   2.969834348356117e+00  -4.557396562901329e-05
2017-01-01T04:59:20.000   4.073494748341605e+04  -1.088519910973748e+04   7.065330917317514e-02   7.937755649098357e-01   2.970413904407708e+00  -4.561291953786889e-05
2017-01-01T04:59:30.000   4.074287440777426e+04  -1.085549207919523e+04   7.019698541592100e-02   7.916092205041066e-01   2.970991880909745e+00  -4.565182249897924e-05
2017-01-01T04:59:40.000   4.075077966665715e+04  -1.082577927650301e+04   6.974027287958380e-02   7.894424551096715e-01   2.971568277554608e+00  -4.569067447252048e-05
2017-01-01T04:59:50.000   4.075866325577751e+04  -1.079606071777803e+04   6.928317207912854e-02   7.872752699017640e-01   2.972143094029831e+00  -4.572947541833292e-05
2017-01-01T05:00:00.000   4.076652517088137e+04  -1.076633641905687e+04   6.882568352862430e-02   7.851076660497385e-01   2.972716330025378e+00  -4.576822529641674e-05
2017-01-01T05:00:10.000   4.077436540770845e+04  -1.073660639644722e+04   6.836780774358661e-02   7.829396447281348e-01   2.973287985230753e+00  -4.580692406673570e-05
2017-01-01T05:00:20.000   4.078218396216920e+04  -1.070687066545707e+04   6.790954523064673e-02   7.807712070677582e-01   2.973858059347902e+00  -4.584557169008967e-05
2017-01-01T05:00:30.000   4.078998083016746e+04  -1.067712924166545e+04   6.745089649787737e-02   7.786023542045962e-01   2.974426552078297e+00  -4.588416812724179e-05
2017-01-01T05:00:40.000   4.079775600764107e+04  -1.064738214057087e+04   6.699186205246496e-02   7.764330872687650e-01   2.974993463125883e+00  -4.592271333911666e-05
2017-01-01T05:00:50.000   4.080550949045805e+04  -1.061762937797584e+04   6.653244240660056e-02   7.742634074125481e-01   2.975558792189518e+00  -4.596120728629531e-05
2017-01-01T05:01:00.000   4.081324127449461e+04  -1.058787096970159e+04   6.607263807312039e-02   7.720933157895923e-01   2.976122538968651e+00  -4.599964992939189e-05
2017-01-01T05:01:10.000   4.082095135563368e+04  -1.055810693158777e+04   6.561244956548401e-02   7.699228135548895e-01   2.976684703163234e+00  -4.603804122905128e-05
2017-01-01T05:01:20.000   4.082863972969392e+04  -1.052833727977933e+04   6.515187740224959e-02   7.677519018856961e-01   2.977245284468517e+00  -4.607638114558542e-05
2017-01-01T05:01:30.000   4.083630639252672e+04  -1.049856203034045e+04   6.469092210106507e-02   7.655805819533729e-01   2.977804282582148e+00  -4.611466963946555e-05
2017-01-01T05:01:40.000   4.084395133997684e+04  -1.046878119940930e+04   6.422958418107307e-02   7.634088549346820e-01   2.978361697201288e+00  -4.615290667112381e-05
2017-01-01T05:01:50.000   4.085157456805796e+04  -1.043899480251484e+04   6.376786415232616e-02   7.612367219619569e-01   2.978917528035413e+00  -4.619109220183200e-05
2017-01-01T05:02:00.000   4.085917607277651e+04  -1.040920285526177e+04   6.330576252639403e-02   7.590641841730541e-01   2.979471774793470e+00  -4.622922619282033e-05
2017-01-01T05:02:10.000   4.086675585017733e+04  -1.037940537315376e+04   6.284327981362832e-02   7.568912426984620e-01   2.980024437187210e+00  -4.626730860550544e-05
2017-01-01T05:02:20.000   4.087431389622026e+04  -1.034960237206856e+04   6.238041653050376e-02   7.547178986959492e-01   2.980575514922180e+00  -4.630533940087574e-05
